#aV2006  9 30  0  0   .00000000      96 DD+AD WGS84 FIT  NGA
## 1394 518400.00000000   900.00000000 54008  .0000000000000
+   29     1  2  3  4  5  6  7  8  9 10 11 13 14 15 16 17 18
+         19 20 21 22 23 24 25 26 27 28 29 30  0  0  0  0  0
+          0  0  0  0  0  0  0  0  0  0  0  0  0  0  0  0  0
+          0  0  0  0  0  0  0  0  0  0  0  0  0  0  0  0  0
+          0  0  0  0  0  0  0  0  0  0  0  0  0  0  0  0  0
++         0  0  0  0  0  0  0  0  0  0  0  0  0  0  0  0  0
++         0  0  0  0  0  0  0  0  0  0  0  0  0  0  0  0  0
++         0  0  0  0  0  0  0  0  0  0  0  0  0  0  0  0  0
++         0  0  0  0  0  0  0  0  0  0  0  0  0  0  0  0  0
++         0  0  0  0  0  0  0  0  0  0  0  0  0  0  0  0  0
%c cc cc ccc ccc cccc cccc cccc cccc ccccc ccccc ccccc ccccc
%c cc cc ccc ccc cccc cccc cccc cccc ccccc ccccc ccccc ccccc
%f  0.0000000  0.000000000  0.00000000000  0.000000000000000
%f  0.0000000  0.000000000  0.00000000000  0.000000000000000
%i    0    0    0    0      0      0      0      0         0
%i    0    0    0    0      0      0      0      0         0
/*      NGA, ST. LOUIS,MO.                                  
/*   EPHEMERIS COMPUTED FROM  3 DAYS OF DATA                
/* CCCCCCCCCCCCCCCCCCCCCCCCCCCCCCCCCCCCCCCCCCCCCCCCCCCCCCCCC
/* CCCCCCCCCCCCCCCCCCCCCCCCCCCCCCCCCCCCCCCCCCCCCCCCCCCCCCCCC
*  2006  9 30 11 15   .00000000                                                 
P  1 -19474.340843 -15230.121058   9996.338834     79.701588                    
V  1  12018.441840   3253.069602  28882.593235       .023384                    
P  2  13038.041226  19298.853816 -13219.679749     40.059356                    
V  2    566.269995  16489.212518  24856.861200       .038296                    
P  3 -23136.761691 -11530.113837  -6975.244324    201.001603                    
V  3   9169.033517  -1079.525350 -29078.509775       .709198                    
P  4   5351.303855  25755.644021  -1812.788529    317.515961                    
V  4  -3123.841630   2797.983180  31590.937861       .053789                    
P  5  21750.951045 -10341.915828  10797.549113    356.000752                    
V  5  -7807.019484  12221.606689  27038.067053       .076802                    
P  6  14600.077420 -10344.837108 -19454.575331    589.018791                    
V  6  23471.751453   9281.216387  12496.601475      -.061010                    
P  7 -10148.419689 -16643.859738 -17662.967127    520.401118                    
V  7  22853.415999   4629.395735 -17256.668308      -.051140                    
P  8  -1502.176952  25381.625298  -7000.409562    -81.441448                    
V  8  -3694.274248  -8390.678680 -30647.058934      -.013146                    
P  9  15276.805710    928.138690  21161.559737     38.243377                    
V  9   5517.046659  27654.620290  -4816.701148       .015667                    
P 10  15163.411679   6276.244704 -21043.758704     90.420693                    
V 10 -20304.985234  16874.050910  -9339.756046       .005626                    
P 11 -16232.514968   3585.586511  20651.329635    352.849678                    
V 11  -8356.710366 -25342.735976  -1889.916633       .018225                    
P 13 -13128.373394   9559.316251 -21100.312869     98.958033                    
V 13 -24390.598087 -10384.123912  10555.106357       .034612                    
P 14  -5290.657145 -16395.525297  20308.757134     -4.505557                    
V 14  24103.626037   8457.872458  13083.834067       .008152                    
P 15   1466.312347 -25718.140031  -5587.892760     -7.627909                    
V 15   3907.401308   6669.591539 -30826.997013      -.070113                    
P 16 -12048.655901  -9564.696542 -21585.993748     77.747955                    
V 16  21182.781066 -17651.821225  -3869.491415       .034383                    
P 17   4739.658229  16742.307278  20092.088467     94.266110                    
V 17 -24269.407948  -7875.546498  12180.876267      -.012067                    
P 18  16390.774044 -19279.410556   7621.579567   -250.051706                    
V 18   9464.653899  -3432.876506 -29831.664512      -.007784                    
P 19 -25128.287637  -7409.309031   4716.463531     20.108259                    
V 19  -4247.692420  -4875.738759 -30897.276464       .033564                    
P 20 -22312.153821  12545.050409   6946.945783    -22.270824                    
V 20   4960.713794  -7979.428494  29990.848915       .001858                    
P 21   6463.965182 -21967.401545 -12890.379452     55.003229                    
V 21   5389.994415  16185.137046 -25258.037687       .017522                    
P 22   5037.208851 -19387.080211  17590.717966    138.264333                    
V 22  18685.833800 -11838.013779 -18592.053535       .030257                    
P 23 -22453.655264   2193.298965 -14258.634181    138.264275                    
V 23 -16157.593211  -7813.602248  24207.899585       .003474                    
P 24   2085.633083  26303.827472   1546.755311     40.098747                    
V 24  -3298.037679  -1337.286841  31797.624948       .030799                    
P 25 -10959.330100 -23136.546373  -6377.080692    357.936436                    
V 25    672.527377  -9152.229708  30319.082114       .195572                    
P 26  25376.929909   8299.659437   2648.496094   -274.516716                    
V 26   3013.655340   2700.004771 -31807.410573      -.150566                    
P 27  -5920.163992  20507.229339 -14993.690851     70.421468                    
V 27  -7033.268995 -19161.168691 -22820.387882       .018968                    
P 28  -8221.037961  20195.387278  15214.977671     17.580284                    
V 28 -16145.331167  10136.238873 -22964.150723      -.007822                    
P 29  25114.111141   9138.761461   -117.714596      8.963101                    
V 29   -975.334214   1455.993051 -32140.885403       .524844                    
P 30  18915.641011 -18509.706074  -1591.374869     11.674878                    
V 30   3519.922896   1412.124545  31390.918727       .012378                    
EOF
